{
    "links": {
        "self": "http://www.neowsapp.com/rest/v1/neo/3694778?api_key=iIulBulltgU6a56xZRHN4H3l9WmuAYTsLGpBGhQ2"
    },
    "id": "3694778",
    "neo_reference_id": "3694778",
    "name": "(2014 UE115)",
    "designation": "2014 UE115",
    "nasa_jpl_url": "http://ssd.jpl.nasa.gov/sbdb.cgi?sstr=3694778",
    "absolute_magnitude_h": 22.4,
    "estimated_diameter": {
        "kilometers": {
            "estimated_diameter_min": 0.0880146521,
            "estimated_diameter_max": 0.1968067451
        },
        "meters": {
            "estimated_diameter_min": 88.0146520901,
            "estimated_diameter_max": 196.8067450894
        },
        "miles": {
            "estimated_diameter_min": 0.0546897524,
            "estimated_diameter_max": 0.122290004
        },
        "feet": {
            "estimated_diameter_min": 288.7619911632,
            "estimated_diameter_max": 645.6914415591
        }
    },
    "is_potentially_hazardous_asteroid": false,
    "close_approach_data": [
        {
            "close_approach_date": "1975-10-13",
            "close_approach_date_full": "1975-Oct-13 07:15",
            "epoch_date_close_approach": 182416500000,
            "relative_velocity": {
                "kilometers_per_second": "15.3133930793",
                "kilometers_per_hour": "55128.2150853911",
                "miles_per_hour": "34254.5289790309"
            },
            "miss_distance": {
                "astronomical": "0.3084245887",
                "lunar": "119.9771650043",
                "kilometers": "46139661.525146069",
                "miles": "28669856.2328269922"
            },
            "orbiting_body": "Earth"
        },
        {
            "close_approach_date": "1997-07-15",
            "close_approach_date_full": "1997-Jul-15 09:30",
            "epoch_date_close_approach": 868959000000,
            "relative_velocity": {
                "kilometers_per_second": "10.5145588032",
                "kilometers_per_hour": "37852.4116914397",
                "miles_per_hour": "23520.0165868282"
            },
            "miss_distance": {
                "astronomical": "0.2864431226",
                "lunar": "111.4263746914",
                "kilometers": "42851281.017108862",
                "miles": "26626551.3344398156"
            },
            "orbiting_body": "Earth"
        },
        {
            "close_approach_date": "2014-10-02",
            "close_approach_date_full": "2014-Oct-02 11:01",
            "epoch_date_close_approach": 1412247660000,
            "relative_velocity": {
                "kilometers_per_second": "9.1767297558",
                "kilometers_per_hour": "33036.227120981",
                "miles_per_hour": "20527.4267908118"
            },
            "miss_distance": {
                "astronomical": "0.16543951",
                "lunar": "64.35596939",
                "kilometers": "24749398.3098437",
                "miles": "15378562.99629506"
            },
            "orbiting_body": "Earth"
        },
        {
            "close_approach_date": "2031-10-15",
            "close_approach_date_full": "2031-Oct-15 04:19",
            "epoch_date_close_approach": 1949804340000,
            "relative_velocity": {
                "kilometers_per_second": "16.2321518995",
                "kilometers_per_hour": "58435.7468382684",
                "miles_per_hour": "36309.7005840341"
            },
            "miss_distance": {
                "astronomical": "0.3391994918",
                "lunar": "131.9486023102",
                "kilometers": "50743521.478362466",
                "miles": "31530562.1550593908"
            },
            "orbiting_body": "Earth"
        },
        {
            "close_approach_date": "2036-06-29",
            "close_approach_date_full": "2036-Jun-29 03:25",
            "epoch_date_close_approach": 2098322700000,
            "relative_velocity": {
                "kilometers_per_second": "18.0449786922",
                "kilometers_per_hour": "64961.923291772",
                "miles_per_hour": "40364.8128364902"
            },
            "miss_distance": {
                "astronomical": "0.4777518189",
                "lunar": "185.8454575521",
                "kilometers": "71470654.496065743",
                "miles": "44409805.3938155334"
            },
            "orbiting_body": "Earth"
        }
    ],
    "orbital_data": {
        "orbit_id": "12",
        "orbit_determination_date": "2017-04-06 08:37:50",
        "first_observation_date": "2014-10-25",
        "last_observation_date": "2014-11-23",
        "data_arc_in_days": 29,
        "observations_used": 35,
        "orbit_uncertainty": "6",
        "minimum_orbit_intersection": ".165979",
        "jupiter_tisserand_invariant": "3.919",
        "epoch_osculation": "2459000.5",
        "eccentricity": ".4204940424825378",
        "semi_major_axis": "1.810003463772985",
        "inclination": "12.72536377843092",
        "ascending_node_longitude": "41.18693549609351",
        "orbital_period": "889.4418004769104",
        "perihelion_distance": "1.048907790383687",
        "perihelion_argument": "292.1424152522637",
        "aphelion_distance": "2.571099137162284",
        "perihelion_time": "2458678.672466309973",
        "mean_anomaly": "130.2591266413245",
        "mean_motion": ".4047482362611824",
        "equinox": "J2000",
        "orbit_class": {
            "orbit_class_type": "AMO",
            "orbit_class_description": "Near-Earth asteroid orbits similar to that of 1221 Amor",
            "orbit_class_range": "1.017 AU < q (perihelion) < 1.3 AU"
        }
    },
    "is_sentry_object": false
}